CCSDS_OMM_VERS = 2.0
CREATION_DATE  = 
ORIGINATOR     = 

OBJECT_NAME    = STARLINK-36792
OBJECT_ID      = 2026-032H
CENTER_NAME    = EARTH
REF_FRAME      = TEME
TIME_SYSTEM    = UTC
MEAN_ELEMENT_THEORY = SGP/SGP4

EPOCH          = 2026-02-28T03:46:14.000736
MEAN_MOTION    = 15.79638825
ECCENTRICITY   = .0001319
INCLINATION    = 97.2836
RA_OF_ASC_NODE = 245.1855
ARG_OF_PERICENTER = 98.3012
MEAN_ANOMALY   = 261.8405

EPHEMERIS_TYPE = 0
CLASSIFICATION_TYPE = U
NORAD_CAT_ID   = 67804
ELEMENT_SET_NO = 999
REV_AT_EPOCH   = 328
BSTAR          = -.4843E-2
MEAN_MOTION_DOT = -.802544E-2
MEAN_MOTION_DDOT = 0

CCSDS_OMM_VERS = 2.0
CREATION_DATE  = 
ORIGINATOR     = 

OBJECT_NAME    = STARLINK-36782
OBJECT_ID      = 2026-032J
CENTER_NAME    = EARTH
REF_FRAME      = TEME
TIME_SYSTEM    = UTC
MEAN_ELEMENT_THEORY = SGP/SGP4

EPOCH          = 2026-02-28T02:13:35.664096
MEAN_MOTION    = 15.80876296
ECCENTRICITY   = .0001448
INCLINATION    = 97.2844
RA_OF_ASC_NODE = 245.1203
ARG_OF_PERICENTER = 78.3754
MEAN_ANOMALY   = 281.7676

EPHEMERIS_TYPE = 0
CLASSIFICATION_TYPE = U
NORAD_CAT_ID   = 67805
ELEMENT_SET_NO = 999
REV_AT_EPOCH   = 327
BSTAR          = .98159E-3
MEAN_MOTION_DOT = .192617E-2
MEAN_MOTION_DDOT = 0

CCSDS_OMM_VERS = 2.0
CREATION_DATE  = 
ORIGINATOR     = 

OBJECT_NAME    = STARLINK-36389
OBJECT_ID      = 2026-032K
CENTER_NAME    = EARTH
REF_FRAME      = TEME
TIME_SYSTEM    = UTC
MEAN_ELEMENT_THEORY = SGP/SGP4

EPOCH          = 2026-02-28T03:43:03.926784
MEAN_MOTION    = 15.80853454
ECCENTRICITY   = .0001653
INCLINATION    = 97.2840
RA_OF_ASC_NODE = 245.1888
ARG_OF_PERICENTER = 94.9531
MEAN_ANOMALY   = 265.1926

EPHEMERIS_TYPE = 0
CLASSIFICATION_TYPE = U
NORAD_CAT_ID   = 67806
ELEMENT_SET_NO = 999
REV_AT_EPOCH   = 328
BSTAR          = .90899E-3
MEAN_MOTION_DOT = .177873E-2
MEAN_MOTION_DDOT = 0

CCSDS_OMM_VERS = 2.0
CREATION_DATE  = 
ORIGINATOR     = 

OBJECT_NAME    = STARLINK-36382
OBJECT_ID      = 2026-032L
CENTER_NAME    = EARTH
REF_FRAME      = TEME
TIME_SYSTEM    = UTC
MEAN_ELEMENT_THEORY = SGP/SGP4

EPOCH          = 2026-02-28T00:39:21.768192
MEAN_MOTION    = 15.80788899
ECCENTRICITY   = .0001564
INCLINATION    = 97.2847
RA_OF_ASC_NODE = 245.0556
ARG_OF_PERICENTER = 84.0005
MEAN_ANOMALY   = 276.1441

EPHEMERIS_TYPE = 0
CLASSIFICATION_TYPE = U
NORAD_CAT_ID   = 67807
ELEMENT_SET_NO = 999
REV_AT_EPOCH   = 326
BSTAR          = .18737E-2
MEAN_MOTION_DOT = .374127E-2
MEAN_MOTION_DDOT = 0

CCSDS_OMM_VERS = 2.0
CREATION_DATE  = 
ORIGINATOR     = 

OBJECT_NAME    = STARLINK-36811
OBJECT_ID      = 2026-032M
CENTER_NAME    = EARTH
REF_FRAME      = TEME
TIME_SYSTEM    = UTC
MEAN_ELEMENT_THEORY = SGP/SGP4

EPOCH          = 2026-02-28T03:39:58.707648
MEAN_MOTION    = 15.80905899
ECCENTRICITY   = .0001365
INCLINATION    = 97.2840
RA_OF_ASC_NODE = 245.1915
ARG_OF_PERICENTER = 79.1816
MEAN_ANOMALY   = 280.9606

EPHEMERIS_TYPE = 0
CLASSIFICATION_TYPE = U
NORAD_CAT_ID   = 67808
ELEMENT_SET_NO = 999
REV_AT_EPOCH   = 328
BSTAR          = .11836E-2
MEAN_MOTION_DOT = .233718E-2
MEAN_MOTION_DDOT = 0

CCSDS_OMM_VERS = 2.0
CREATION_DATE  = 
ORIGINATOR     = 

OBJECT_NAME    = STARLINK-36795
OBJECT_ID      = 2026-032N
CENTER_NAME    = EARTH
REF_FRAME      = TEME
TIME_SYSTEM    = UTC
MEAN_ELEMENT_THEORY = SGP/SGP4

EPOCH          = 2026-02-28T00:36:02.775168
MEAN_MOTION    = 15.80897303
ECCENTRICITY   = .0001278
INCLINATION    = 97.2845
RA_OF_ASC_NODE = 245.0586
ARG_OF_PERICENTER = 101.4485
MEAN_ANOMALY   = 258.6927

EPHEMERIS_TYPE = 0
CLASSIFICATION_TYPE = U
NORAD_CAT_ID   = 67809
ELEMENT_SET_NO = 999
REV_AT_EPOCH   = 326
BSTAR          = .6697E-3
MEAN_MOTION_DOT = .130557E-2
MEAN_MOTION_DDOT = 0

CCSDS_OMM_VERS = 2.0
CREATION_DATE  = 
ORIGINATOR     = 

OBJECT_NAME    = STARLINK-36807
OBJECT_ID      = 2026-032P
CENTER_NAME    = EARTH
REF_FRAME      = TEME
TIME_SYSTEM    = UTC
MEAN_ELEMENT_THEORY = SGP/SGP4

EPOCH          = 2026-02-28T02:05:51.785952
MEAN_MOTION    = 15.80909130
ECCENTRICITY   = .0001699
INCLINATION    = 97.2833
RA_OF_ASC_NODE = 245.1270
ARG_OF_PERICENTER = 74.6491
MEAN_ANOMALY   = 285.4965

EPHEMERIS_TYPE = 0
CLASSIFICATION_TYPE = U
NORAD_CAT_ID   = 67810
ELEMENT_SET_NO = 999
REV_AT_EPOCH   = 327
BSTAR          = .11277E-2
MEAN_MOTION_DOT = .222401E-2
MEAN_MOTION_DDOT = 0

CCSDS_OMM_VERS = 2.0
CREATION_DATE  = 
ORIGINATOR     = 

OBJECT_NAME    = STARLINK-36733
OBJECT_ID      = 2026-032Q
CENTER_NAME    = EARTH
REF_FRAME      = TEME
TIME_SYSTEM    = UTC
MEAN_ELEMENT_THEORY = SGP/SGP4

EPOCH          = 2026-02-28T03:35:13.493472
MEAN_MOTION    = 15.80932528
ECCENTRICITY   = .0001776
INCLINATION    = 97.2835
RA_OF_ASC_NODE = 245.1952
ARG_OF_PERICENTER = 86.0813
MEAN_ANOMALY   = 274.0658

EPHEMERIS_TYPE = 0
CLASSIFICATION_TYPE = U
NORAD_CAT_ID   = 67811
ELEMENT_SET_NO = 999
REV_AT_EPOCH   = 328
BSTAR          = .13703E-2
MEAN_MOTION_DOT = .272126E-2
MEAN_MOTION_DDOT = 0

CCSDS_OMM_VERS = 2.0
CREATION_DATE  = 
ORIGINATOR     = 

OBJECT_NAME    = STARLINK-36377
OBJECT_ID      = 2026-032R
CENTER_NAME    = EARTH
REF_FRAME      = TEME
TIME_SYSTEM    = UTC
MEAN_ELEMENT_THEORY = SGP/SGP4

EPOCH          = 2026-02-27T22:57:11.872224
MEAN_MOTION    = 15.80908811
ECCENTRICITY   = .0001576
INCLINATION    = 97.2831
RA_OF_ASC_NODE = 244.9991
ARG_OF_PERICENTER = 51.7884
MEAN_ANOMALY   = 308.3526

EPHEMERIS_TYPE = 0
CLASSIFICATION_TYPE = U
NORAD_CAT_ID   = 67812
ELEMENT_SET_NO = 999
REV_AT_EPOCH   = 325
BSTAR          = .17228E-2
MEAN_MOTION_DOT = .344691E-2
MEAN_MOTION_DDOT = 0

CCSDS_OMM_VERS = 2.0
CREATION_DATE  = 
ORIGINATOR     = 

OBJECT_NAME    = STARLINK-36732
OBJECT_ID      = 2026-032S
CENTER_NAME    = EARTH
REF_FRAME      = TEME
TIME_SYSTEM    = UTC
MEAN_ELEMENT_THEORY = SGP/SGP4

EPOCH          = 2026-02-28T00:29:45.335904
MEAN_MOTION    = 15.80878493
ECCENTRICITY   = .0002394
INCLINATION    = 97.2830
RA_OF_ASC_NODE = 245.0632
ARG_OF_PERICENTER = 80.6711
MEAN_ANOMALY   = 279.4827

EPHEMERIS_TYPE = 0
CLASSIFICATION_TYPE = U
NORAD_CAT_ID   = 67813
ELEMENT_SET_NO = 999
REV_AT_EPOCH   = 326
BSTAR          = .12047E-2
MEAN_MOTION_DOT = .237709E-2
MEAN_MOTION_DDOT = 0

CCSDS_OMM_VERS = 2.0
CREATION_DATE  = 
ORIGINATOR     = 

OBJECT_NAME    = STARLINK-36767
OBJECT_ID      = 2026-032T
CENTER_NAME    = EARTH
REF_FRAME      = TEME
TIME_SYSTEM    = UTC
MEAN_ELEMENT_THEORY = SGP/SGP4

EPOCH          = 2026-02-28T00:31:06.606336
MEAN_MOTION    = 15.80811433
ECCENTRICITY   = .0001554
INCLINATION    = 97.2828
RA_OF_ASC_NODE = 245.0620
ARG_OF_PERICENTER = 95.3962
MEAN_ANOMALY   = 264.7483

EPHEMERIS_TYPE = 0
CLASSIFICATION_TYPE = U
NORAD_CAT_ID   = 67814
ELEMENT_SET_NO = 999
REV_AT_EPOCH   = 326
BSTAR          = .59559E-4
MEAN_MOTION_DOT = .11279E-3
MEAN_MOTION_DDOT = 0

CCSDS_OMM_VERS = 2.0
CREATION_DATE  = 
ORIGINATOR     = 

OBJECT_NAME    = STARLINK-36797
OBJECT_ID      = 2026-032U
CENTER_NAME    = EARTH
REF_FRAME      = TEME
TIME_SYSTEM    = UTC
MEAN_ELEMENT_THEORY = SGP/SGP4

EPOCH          = 2026-02-28T00:26:35.688768
MEAN_MOTION    = 15.80894267
ECCENTRICITY   = .000212
INCLINATION    = 97.2833
RA_OF_ASC_NODE = 245.0673
ARG_OF_PERICENTER = 77.9304
MEAN_ANOMALY   = 282.2202

EPHEMERIS_TYPE = 0
CLASSIFICATION_TYPE = U
NORAD_CAT_ID   = 67815
ELEMENT_SET_NO = 999
REV_AT_EPOCH   = 326
BSTAR          = .12403E-2
MEAN_MOTION_DOT = .245118E-2
MEAN_MOTION_DDOT = 0

